{
  "norad_id": 63136,
  "name": "STARLINK-11613 [DTC]",
  "history": [
    {
      "epoch": "2026-03-28T13:02:47.250816Z",
      "apogee_km": 357.82678380307607,
      "perigee_km": 354.47984151768287,
      "latitude_deg": -1.253582162222108e-05,
      "longitude_deg": 115.74547343219555,
      "height_km": 355.9971661137222,
      "semi_major_axis_km": 6734.290312660379,
      "eccentricity": 0.0002485,
      "inclination_deg": 43.0028,
      "raan_deg": 137.4049,
      "arg_perigee_deg": 267.5928,
      "mean_anomaly_deg": 92.4655,
      "mean_motion_rev_day": 15.70959576
    },
    {
      "epoch": "2026-03-30T03:11:47.508000Z",
      "apogee_km": 357.26430057165726,
      "perigee_km": 355.54564546014444,
      "latitude_deg": 2.0193299591507274e-05,
      "longitude_deg": -107.65483054619541,
      "height_km": 356.3286158847308,
      "semi_major_axis_km": 6734.541973015901,
      "eccentricity": 0.0001276,
      "inclination_deg": 43.0006,
      "raan_deg": 127.8224,
      "arg_perigee_deg": 259.8608,
      "mean_anomaly_deg": 100.2116,
      "mean_motion_rev_day": 15.7087152
    },
    {
      "epoch": "2026-03-30T03:11:47.508864Z",
      "apogee_km": 357.2642332262385,
      "perigee_km": 355.5457128055641,
      "latitude_deg": 1.9419476797360364e-05,
      "longitude_deg": -107.65483498119684,
      "height_km": 356.32860403085607,
      "semi_major_axis_km": 6734.541973015901,
      "eccentricity": 0.00012759,
      "inclination_deg": 43.0006,
      "raan_deg": 127.8224,
      "arg_perigee_deg": 259.8608,
      "mean_anomaly_deg": 100.2116,
      "mean_motion_rev_day": 15.7087152
    },
    {
      "epoch": "2026-03-30T13:52:42.918528Z",
      "apogee_km": 356.7998160817933,
      "perigee_km": 355.7042656726235,
      "latitude_deg": 1.2881399201268363e-05,
      "longitude_deg": 88.99308841854747,
      "height_km": 355.9718543707949,
      "semi_major_axis_km": 6734.389040877209,
      "eccentricity": 8.134e-05,
      "inclination_deg": 42.9994,
      "raan_deg": 125.1399,
      "arg_perigee_deg": 275.4524,
      "mean_anomaly_deg": 84.6251,
      "mean_motion_rev_day": 15.7092503
    },
    {
      "epoch": "2026-03-31T11:14:33.690336Z",
      "apogee_km": 356.6869706759053,
      "perigee_km": 356.08759801459837,
      "latitude_deg": 2.1303789644906757e-05,
      "longitude_deg": 122.2881567999571,
      "height_km": 355.99648670239463,
      "semi_major_axis_km": 6734.5242843452515,
      "eccentricity": 4.45e-05,
      "inclination_deg": 42.9995,
      "raan_deg": 119.7739,
      "arg_perigee_deg": 302.7861,
      "mean_anomaly_deg": 57.2964,
      "mean_motion_rev_day": 15.70877709
    },
    {
      "epoch": "2026-04-02T18:10:42.231072Z",
      "apogee_km": 356.97624086365886,
      "perigee_km": 355.5512416668071,
      "latitude_deg": -2.4078281775080572e-06,
      "longitude_deg": 2.19941835538404,
      "height_km": 355.58066288586105,
      "semi_major_axis_km": 6734.400741265233,
      "eccentricity": 0.0001058,
      "inclination_deg": 43.0,
      "raan_deg": 105.9769,
      "arg_perigee_deg": 50.4786,
      "mean_anomaly_deg": 309.6175,
      "mean_motion_rev_day": 15.70920936
    },
    {
      "epoch": "2026-04-02T18:10:42.231936Z",
      "apogee_km": 356.9760388316363,
      "perigee_km": 355.55144369882964,
      "latitude_deg": -5.90127640989264e-07,
      "longitude_deg": 2.1994166838246985,
      "height_km": 355.580791433764,
      "semi_major_axis_km": 6734.400741265233,
      "eccentricity": 0.00010577,
      "inclination_deg": 43.0,
      "raan_deg": 105.9769,
      "arg_perigee_deg": 50.4786,
      "mean_anomaly_deg": 309.6175,
      "mean_motion_rev_day": 15.70920936
    },
    {
      "epoch": "2026-04-03T09:26:17.505888Z",
      "apogee_km": 357.6317278540182,
      "perigee_km": 355.0209111143213,
      "latitude_deg": 2.234676227046735e-06,
      "longitude_deg": 128.8429473876119,
      "height_km": 355.17214604132164,
      "semi_major_axis_km": 6734.46331948417,
      "eccentricity": 0.00019384,
      "inclination_deg": 42.9996,
      "raan_deg": 102.1441,
      "arg_perigee_deg": 315.2247,
      "mean_anomaly_deg": 44.8464,
      "mean_motion_rev_day": 15.7089904
    },
    {
      "epoch": "2026-04-04T09:51:13.612608Z",
      "apogee_km": 356.9225421403489,
      "perigee_km": 355.1747515975594,
      "latitude_deg": -4.148228271108592e-05,
      "longitude_deg": 115.47380987959437,
      "height_km": 355.36570646092315,
      "semi_major_axis_km": 6734.185646868954,
      "eccentricity": 0.00012977,
      "inclination_deg": 42.9997,
      "raan_deg": 96.0115,
      "arg_perigee_deg": 301.3887,
      "mean_anomaly_deg": 58.6853,
      "mean_motion_rev_day": 15.70996201
    },
    {
      "epoch": "2026-04-05T02:38:25.501632Z",
      "apogee_km": 357.72411745672343,
      "perigee_km": 354.8447482288975,
      "latitude_deg": 6.0066413083558865e-05,
      "longitude_deg": -141.2295228259713,
      "height_km": 357.27391770431444,
      "semi_major_axis_km": 6734.421432842811,
      "eccentricity": 0.00021378,
      "inclination_deg": 42.999,
      "raan_deg": 91.797,
      "arg_perigee_deg": 212.2513,
      "mean_anomaly_deg": 147.8225,
      "mean_motion_rev_day": 15.70913696
    },
    {
      "epoch": "2026-04-05T20:57:08.919360Z",
      "apogee_km": 358.00044870350393,
      "perigee_km": 354.1363616420158,
      "latitude_deg": -6.061385389194831e-06,
      "longitude_deg": -61.2623515107114,
      "height_km": 355.77486255025985,
      "semi_major_axis_km": 6734.205405172759,
      "eccentricity": 0.0002869,
      "inclination_deg": 43.0013,
      "raan_deg": 87.1972,
      "arg_perigee_deg": 271.9935,
      "mean_anomaly_deg": 88.0604,
      "mean_motion_rev_day": 15.70989287
    }
  ]
}